SPAWAR-CAL-R            
1 43776U 18099U   26067.65115975  .00003570  00000+0  25336-3 0  9990
2 43776  97.4524 111.5817 0019701 348.9052  11.1737 15.05212097396878
STARLINK-4310           
1 53074U 22077AH  26068.97544262  .00001085  00000+0  79435-4 0  9993
2 53074  97.6021 251.4717 0001773 113.1748 246.9665 15.05639905201022
